OBJECT_NAME,OBJECT_ID,EPOCH,MEAN_MOTION,ECCENTRICITY,INCLINATION,RA_OF_ASC_NODE,ARG_OF_PERICENTER,MEAN_ANOMALY,EPHEMERIS_TYPE,CLASSIFICATION_TYPE,NORAD_CAT_ID,ELEMENT_SET_NO,REV_AT_EPOCH,BSTAR,MEAN_MOTION_DOT,MEAN_MOTION_DDOT
ONEWEB-0046,2020-020Z,2026-06-25T14:44:04.715808,13.11417812,.0001905,87.8884,19.3921,78.7964,281.3378,0,U,45447,999,30371,.51341E-3,.195E-5,0
ONEWEB-0063,2020-020AA,2026-06-25T13:35:54.690144,13.11414004,.0002091,87.8890,19.4007,83.6697,276.4669,0,U,45448,999,30379,.65325E-3,.244E-5,0
ONEWEB-0019,2020-020AB,2026-06-25T14:31:40.048032,13.11418792,.000182,87.8886,19.3792,92.0741,268.0595,0,U,45449,999,30364,-.4645E-3,-.152E-5,0
ONEWEB-0094,2020-020AC,2026-06-25T13:20:31.551072,13.17648015,.0001646,87.9141,4.1847,91.2397,268.8923,0,U,45450,999,30741,.79851E-4,.44E-6,0
ONEWEB-0087,2020-020AD,2026-06-25T13:50:09.286368,13.11414465,.0001578,87.8898,19.3735,81.6065,278.5242,0,U,45451,999,30368,-.44579E-3,-.145E-5,0
ONEWEB-0082,2020-020AE,2026-06-25T15:35:08.871072,13.11414274,.0001656,87.8891,19.3749,72.3220,287.8088,0,U,45452,999,30378,.61286E-5,.15E-6,0
ONEWEB-0050,2020-020AF,2026-06-25T16:04:03.281088,14.90410431,.0001648,88.9292,232.0589,5.0787,355.0458,0,U,45453,999,34164,.20586E-3,.2025E-4,0
ONEWEB-0034,2020-020AG,2026-06-25T14:39:23.933952,13.11411394,.0001687,87.8893,19.3923,89.2702,270.8619,0,U,45454,999,30369,.37161E-2,.133E-4,0
ONEWEB-0060,2020-020AH,2026-06-25T15:24:21.792096,13.11413753,.0000915,87.8883,19.3831,67.2446,292.8778,0,U,45455,999,30365,.81211E-3,.3E-5,0
ONEWEB-0086,2020-020AJ,2026-06-25T14:53:39.503040,13.11406681,.0000854,87.8892,19.3834,122.2661,237.8549,0,U,45456,999,30371,.70219E-2,.2502E-4,0
ONEWEB-0088,2020-020AK,2026-06-25T14:22:04.797696,13.11416697,.0002115,87.8899,19.3613,77.7707,282.3657,0,U,45457,999,30364,-.12339E-2,-.425E-5,0
ONEWEB-0102,2020-100A,2026-06-25T12:28:52.353696,13.12443335,.0001719,87.8942,349.0174,101.4506,258.6816,0,U,47258,999,26582,-.56768E-3,-.192E-5,0
ONEWEB-0109,2020-100B,2026-06-25T12:41:04.578144,13.12443465,.0001892,87.8954,348.9998,96.5511,263.5833,0,U,47259,999,26565,.24924E-3,.102E-5,0
ONEWEB-0110,2020-100C,2026-06-25T11:30:19.418688,13.12440831,.0001557,87.8953,348.9937,95.5037,264.6269,0,U,47260,999,26581,.75391E-3,.284E-5,0
ONEWEB-0111,2020-100D,2026-06-25T12:14:13.866144,13.12442658,.0001753,87.8953,349.0064,90.9085,269.2245,0,U,47261,999,26565,-.8875E-3,-.307E-5,0
ONEWEB-0114,2020-100E,2026-06-25T20:17:17.323296,13.12445869,.0001959,87.8953,348.9374,97.0835,263.0516,0,U,47262,999,26565,.82394E-3,.309E-5,0
ONEWEB-0117,2020-100F,2026-06-25T20:05:04.259904,13.12445020,.0001795,87.8951,348.9296,93.2653,266.8681,0,U,47263,999,26566,.4835E-3,.187E-5,0
ONEWEB-0118,2020-100G,2026-06-25T11:44:57.233184,13.12442066,.0002125,87.8951,349.0012,89.9103,270.2269,0,U,47264,999,26581,-.20325E-3,-.6E-6,0
ONEWEB-0119,2020-100H,2026-06-25T12:21:32.589792,13.12444718,.000185,87.8942,349.0124,92.8750,267.2590,0,U,47265,999,26579,-.75527E-3,-.259E-5,0
ONEWEB-0120,2020-100J,2026-06-25T20:15:01.809216,13.12443611,.0001925,87.8942,348.9482,96.9736,263.1612,0,U,47266,999,26586,.39856E-3,.156E-5,0
ONEWEB-0121,2020-100K,2026-06-25T12:38:37.086432,13.12445278,.0001574,87.8952,348.9980,84.4435,275.6873,0,U,47267,999,26573,.52051E-4,.31E-6,0
ONEWEB-0122,2020-100L,2026-06-25T12:30:05.827392,13.12444881,.00018,87.8954,349.0039,97.6784,262.4549,0,U,47268,999,26564,-.35087E-3,-.114E-5,0
ONEWEB-0123,2020-100M,2026-06-25T12:23:58.558272,13.12443945,.0001942,87.8942,349.0111,90.9269,269.2082,0,U,47269,999,26578,-.11045E-2,-.385E-5,0
ONEWEB-0124,2020-100N,2026-06-25T12:09:20.306592,13.12441789,.0001761,87.8941,349.0160,89.7100,270.4230,0,U,47270,999,26566,-.10396E-2,-.361E-5,0
ONEWEB-0125,2020-100P,2026-06-25T11:37:38.186400,13.12440618,.0001824,87.8954,349.0046,82.2025,277.9311,0,U,47271,999,26572,.30575E-3,.123E-5,0
ONEWEB-0126,2020-100Q,2026-06-25T12:07:07.127040,13.12443249,.0001929,87.8947,349.0156,95.0668,265.0680,0,U,47272,999,26579,-.10002E-2,-.347E-5,0
ONEWEB-0127,2020-100R,2026-06-25T20:27:02.296224,13.12442306,.00019,87.8940,348.9449,96.3831,263.7514,0,U,47273,999,26586,.11827E-2,.438E-5,0
ONEWEB-0128,2020-100S,2026-06-25T11:49:49.848384,13.12443444,.0001612,87.8937,349.0302,93.7528,266.3785,0,U,47274,999,26583,-.16135E-2,-.568E-5,0
ONEWEB-0129,2020-100T,2026-06-25T20:29:28.429728,13.12443380,.0002735,87.8952,348.9331,110.3237,249.8186,0,U,47275,999,26581,.1295E-2,.479E-5,0
ONEWEB-0130,2020-100U,2026-06-25T11:59:35.299104,13.12441885,.0001825,87.8951,348.9989,95.9361,264.1975,0,U,47276,999,26573,-.11352E-2,-.396E-5,0
